{
    "links": {
        "self": "http://www.neowsapp.com/rest/v1/neo/3774113?api_key=iIulBulltgU6a56xZRHN4H3l9WmuAYTsLGpBGhQ2"
    },
    "id": "3774113",
    "neo_reference_id": "3774113",
    "name": "(2017 HE4)",
    "designation": "2017 HE4",
    "nasa_jpl_url": "http://ssd.jpl.nasa.gov/sbdb.cgi?sstr=3774113",
    "absolute_magnitude_h": 21.2,
    "estimated_diameter": {
        "kilometers": {
            "estimated_diameter_min": 0.1529519353,
            "estimated_diameter_max": 0.3420109247
        },
        "meters": {
            "estimated_diameter_min": 152.9519353442,
            "estimated_diameter_max": 342.0109247198
        },
        "miles": {
            "estimated_diameter_min": 0.095039897,
            "estimated_diameter_max": 0.2125156703
        },
        "feet": {
            "estimated_diameter_min": 501.8108275547,
            "estimated_diameter_max": 1122.0831222578
        }
    },
    "is_potentially_hazardous_asteroid": false,
    "close_approach_data": [
        {
            "close_approach_date": "2017-05-11",
            "close_approach_date_full": "2017-May-11 07:29",
            "epoch_date_close_approach": 1494487740000,
            "relative_velocity": {
                "kilometers_per_second": "35.5271565103",
                "kilometers_per_hour": "127897.7634370534",
                "miles_per_hour": "79470.6963978735"
            },
            "miss_distance": {
                "astronomical": "0.2880484509",
                "lunar": "112.0508474001",
                "kilometers": "43091434.711439583",
                "miles": "26775775.9204609254"
            },
            "orbiting_body": "Earth"
        },
        {
            "close_approach_date": "2028-11-27",
            "close_approach_date_full": "2028-Nov-27 00:51",
            "epoch_date_close_approach": 1858899060000,
            "relative_velocity": {
                "kilometers_per_second": "11.7250729107",
                "kilometers_per_hour": "42210.2624785355",
                "miles_per_hour": "26227.8155939544"
            },
            "miss_distance": {
                "astronomical": "1.7797113567",
                "lunar": "692.3077177563",
                "kilometers": "266241028.177130229",
                "miles": "165434503.6094020002"
            },
            "orbiting_body": "Juptr"
        }
    ],
    "orbital_data": {
        "orbit_id": "5",
        "orbit_determination_date": "2017-05-14 06:17:49",
        "first_observation_date": "2017-04-23",
        "last_observation_date": "2017-05-14",
        "data_arc_in_days": 21,
        "observations_used": 59,
        "orbit_uncertainty": "8",
        "minimum_orbit_intersection": ".253624",
        "jupiter_tisserand_invariant": "2.174",
        "epoch_osculation": "2457872.5",
        "eccentricity": ".9427853434261895",
        "semi_major_axis": "2.892573387578344",
        "inclination": "41.0700806879245",
        "ascending_node_longitude": "208.6401454711271",
        "orbital_period": "1796.904541258705",
        "perihelion_distance": ".1654975929848387",
        "perihelion_argument": "158.9393343386763",
        "aphelion_distance": "5.61964918217185",
        "perihelion_time": "2457926.527182967860",
        "mean_anomaly": "349.1759492939979",
        "mean_motion": ".200344532352189",
        "equinox": "J2000",
        "orbit_class": {
            "orbit_class_type": "APO",
            "orbit_class_description": "Near-Earth asteroid orbits which cross the Earth’s orbit similar to that of 1862 Apollo",
            "orbit_class_range": "a (semi-major axis) > 1.0 AU; q (perihelion) < 1.017 AU"
        }
    },
    "is_sentry_object": false
}